     3.04           N: GNSS NAV DATA    J: QZSS             RINEX VERSION / TYPE
TPP 5.1.1                               20240331 235934 UTC PGM / RUN BY / DATE 
                                                            COMMENT             
                                                            COMMENT             
                                                            COMMENT             
QZSA    .2608E-07   .1490E-07  -.1192E-06  -.5960E-07       IONOSPHERIC CORR    
QZSB    .1290E+06   .1638E+05  -.2621E+06   .3277E+06       IONOSPHERIC CORR    
QZUT  -.2793967724E-08 -.710542736E-14 319488 2308          TIME SYSTEM CORR    
    18  2308     1                                          LEAP SECONDS        
                                                            END OF HEADER       
J02 2024 04 01 09 00 00 -.354601070285E-05 -.454747350886E-12  .000000000000E+00
      .129000000000E+03  .341843750000E+03  .110647466054E-08 -.105152024200E+01
      .108964741230E-04  .744051130023E-01  .847689807415E-05  .649378442574E+04
      .118800000000E+06  .793486833572E-06  .115251897244E+01  .250898301601E-05
      .710203344649E+00 -.695625000000E+02 -.156087589016E+01 -.131862635465E-08
     -.922538427428E-09  .000000000000E+00  .230800000000E+04  .000000000000E+00
      .280000000000E+01  .100000000000E+01  .186264514923E-08  .897000000000E+03
      .115206000000E+06  .000000000000E+00  .000000000000E+00  .000000000000E+00
J04 2024 04 01 09 00 00  .505493953824E-04 -.113686837722E-12  .000000000000E+00
      .129000000000E+03 -.283343750000E+03  .138470053548E-08  .170680931388E+01
     -.914372503757E-05  .752262005117E-01  .586546957493E-05  .649316057778E+04
      .118800000000E+06  .128149986267E-05 -.169474156952E+01  .907108187675E-06
      .624038123704E+00 -.255000000000E+02 -.156924473247E+01 -.128362489670E-08
      .409659921123E-09  .000000000000E+00  .230800000000E+04  .000000000000E+00
      .280000000000E+01  .100000000000E+01 -.279396772385E-08  .897000000000E+03
      .115206000000E+06  .000000000000E+00  .000000000000E+00  .000000000000E+00
J03 2024 04 01 10 00 00 -.128522515297E-06  .000000000000E+00  .000000000000E+00
      .133000000000E+03 -.366562500000E+02  .742888087128E-09 -.251455470226E+01
     -.739470124245E-06  .744391104672E-01 -.933185219765E-05  .649341792488E+04
      .122400000000E+06 -.353716313839E-05  .287965709689E+01  .145286321640E-06
      .707894981342E+00  .442687500000E+03 -.157003905164E+01 -.114397622263E-08
      .118362073113E-08  .200000000000E+01  .230800000000E+04  .000000000000E+00
      .280000000000E+01  .100000000000E+01  .931322574615E-09  .901000000000E+03
      .118806000000E+06  .000000000000E+00  .000000000000E+00  .000000000000E+00
J02 2024 04 01 10 00 00 -.354694202542E-05 -.454747350886E-12  .000000000000E+00
      .133000000000E+03  .272406250000E+03  .167256966924E-08 -.789152827497E+00
      .899285078049E-05  .744004009757E-01  .999867916107E-05  .649375979424E+04
      .122400000000E+06 -.105239450932E-05  .115251002230E+01  .210851430893E-05
      .710197413979E+00 -.123218750000E+03 -.156076502731E+01 -.182293307534E-08
     -.104968658080E-08  .000000000000E+00  .230800000000E+04  .000000000000E+00
      .280000000000E+01  .100000000000E+01  .186264514923E-08  .901000000000E+03
      .118806000000E+06  .000000000000E+00  .000000000000E+00  .000000000000E+00
J04 2024 04 01 10 00 00  .505498610437E-04 -.113686837722E-12  .000000000000E+00
      .133000000000E+03 -.337312500000E+03  .247760320212E-08  .196941162622E+01
     -.107251107693E-04  .752276921412E-01  .602938234806E-05  .649315167809E+04
      .122400000000E+06  .452622771263E-06 -.169475494352E+01 -.592321157455E-06
      .624032652390E+00 -.455000000000E+02 -.156928880727E+01 -.244188742870E-08
      .607882463602E-09  .000000000000E+00  .230800000000E+04  .000000000000E+00
      .280000000000E+01  .100000000000E+01 -.279396772385E-08  .901000000000E+03
      .118806000000E+06  .000000000000E+00  .000000000000E+00  .000000000000E+00
J03 2024 04 01 11 00 00 -.128056854010E-06  .000000000000E+00  .000000000000E+00
      .137000000000E+03 -.271875000000E+01 -.334656796942E-09 -.225207387064E+01
      .523403286934E-06  .744429383194E-01 -.907666981220E-05  .649340631104E+04
      .126000000000E+06 -.449456274509E-05  .287963909861E+01 -.371411442757E-05
      .707904326462E+00  .444531250000E+03 -.156999116302E+01  .231081054025E-09
      .160042380693E-08  .200000000000E+01  .230800000000E+04  .000000000000E+00
      .280000000000E+01  .100000000000E+01  .931322574615E-09  .905000000000E+03
      .122406000000E+06  .000000000000E+00  .000000000000E+00  .000000000000E+00
J02 2024 04 01 11 00 00 -.354833900928E-05 -.454747350886E-12  .000000000000E+00
      .137000000000E+03  .189843750000E+03  .245153068752E-08 -.526760095729E+00
      .669062137604E-05  .743934011552E-01  .103022903204E-04  .649373340798E+04
      .126000000000E+06 -.104121863842E-05  .115249367858E+01  .458210706711E-06
      .710190833773E+00 -.130593750000E+03 -.156067035017E+01 -.263832418251E-08
     -.739316509786E-09  .000000000000E+00  .230800000000E+04  .000000000000E+00
      .280000000000E+01  .100000000000E+01  .186264514923E-08  .905000000000E+03
      .122406000000E+06  .000000000000E+00  .000000000000E+00  .000000000000E+00
J04 2024 04 01 11 00 00  .505493953824E-04 -.113686837722E-12  .000000000000E+00
      .137000000000E+03 -.421062500000E+03  .334871091582E-08  .223203395128E+01
     -.129006803036E-04  .752314814599E-01  .588223338127E-05  .649313831711E+04
      .126000000000E+06  .213645398617E-05 -.169477354159E+01 -.171549618244E-05
      .624030073266E+00 -.477500000000E+02 -.156934733716E+01 -.326906474110E-08
      .111290349975E-08  .000000000000E+00  .230800000000E+04  .000000000000E+00
      .280000000000E+01  .100000000000E+01 -.279396772385E-08  .905000000000E+03
      .122406000000E+06  .000000000000E+00  .000000000000E+00  .000000000000E+00
J03 2024 04 01 12 00 00 -.128056854010E-06  .000000000000E+00  .000000000000E+00
      .141000000000E+03  .495000000000E+02 -.399659504565E-09 -.198960690894E+01
      .218115746975E-05  .744460611604E-01 -.875070691109E-05  .649339553833E+04
      .129600000000E+06 -.616535544395E-06  .287964010217E+01 -.497698783875E-05
      .707907015306E+00  .439000000000E+03 -.156994312810E+01  .388587614805E-09
      .101789954246E-08  .200000000000E+01  .230800000000E+04  .000000000000E+00
      .280000000000E+01  .100000000000E+01  .931322574615E-09  .909000000000E+03
      .126006000000E+06  .000000000000E+00  .000000000000E+00  .000000000000E+00
J04 2024 04 01 12 00 00  .505493953824E-04 -.113686837722E-12  .000000000000E+00
      .141000000000E+03 -.490812500000E+03  .335763985918E-08  .249464513767E+01
     -.147428363562E-04  .752364733489E-01  .543706119061E-05  .649312424278E+04
      .129600000000E+06  .318139791489E-05 -.169478501672E+01 -.249594449997E-06
      .624033319481E+00 -.268750000000E+02 -.156939904400E+01 -.311584407313E-08
      .135791370541E-08  .200000000000E+01  .230800000000E+04  .000000000000E+00
      .280000000000E+01  .100000000000E+01 -.279396772385E-08  .909000000000E+03
      .126006000000E+06  .000000000000E+00  .000000000000E+00  .000000000000E+00
J02 2024 04 01 12 00 00 -.355020165443E-05 -.454747350886E-12  .000000000000E+00
      .141000000000E+03  .152625000000E+03  .275047171104E-08 -.264306031121E+00
      .564940273762E-05  .743889716686E-01  .971928238869E-05  .649371948242E+04
      .129600000000E+06 -.458210706711E-06  .115247948828E+01  .195577740669E-06
      .710187865512E+00 -.109093750000E+03 -.156063561757E+01 -.291190700690E-08
     -.494306304127E-09  .000000000000E+00  .230800000000E+04  .000000000000E+00
      .280000000000E+01  .100000000000E+01  .186264514923E-08  .909000000000E+03
      .126006000000E+06  .000000000000E+00  .000000000000E+00  .000000000000E+00
J04 2024 04 01 13 00 00  .505489297211E-04 -.113686837722E-12  .000000000000E+00
      .145000000000E+03 -.514625000000E+03  .281297431453E-08  .275722428617E+01
     -.155940651894E-04  .752395973541E-01  .503659248352E-05  .649311585045E+04
      .133200000000E+06  .147148966789E-05 -.169478457346E+01  .663101673126E-06
      .624038638651E+00 -.114062500000E+02 -.156942667121E+01 -.245224500299E-08
      .966111671000E-09  .200000000000E+01  .230800000000E+04  .000000000000E+00
      .280000000000E+01  .100000000000E+01 -.279396772385E-08  .913000000000E+03
      .129606000000E+06  .000000000000E+00  .000000000000E+00  .000000000000E+00
J02 2024 04 01 13 00 00 -.355159863830E-05 -.454747350886E-12  .000000000000E+00
      .145000000000E+03  .154593750000E+03  .270582699427E-08 -.181791855789E-02
      .572949647903E-05  .743906775024E-01  .102445483208E-04  .649372419739E+04
      .133200000000E+06 -.577419996262E-06  .115247091997E+01 -.502914190292E-07
      .710185954941E+00 -.124437500000E+03 -.156063866922E+01 -.288047712629E-08
     -.641812448350E-09  .000000000000E+00  .230800000000E+04  .000000000000E+00
      .280000000000E+01  .100000000000E+01  .186264514923E-08  .913000000000E+03
      .129606000000E+06  .000000000000E+00  .000000000000E+00  .000000000000E+00
J03 2024 04 01 13 00 00 -.127591192722E-06  .000000000000E+00  .000000000000E+00
      .145000000000E+03  .100812500000E+03  .426803492364E-09 -.172714024129E+01
      .388175249100E-05  .744477427797E-01 -.828877091408E-05  .649338646126E+04
      .133200000000E+06  .196322798729E-05  .287964572709E+01 -.222027301788E-05
      .707901222150E+00  .419281250000E+03 -.156989806291E+01 -.574309636587E-09
      .308584282345E-09  .000000000000E+00  .230800000000E+04  .000000000000E+00
      .280000000000E+01  .100000000000E+01  .931322574615E-09  .913000000000E+03
      .129606000000E+06  .000000000000E+00  .000000000000E+00  .000000000000E+00
